GLOBALSTAR M094         
1 39074U 13005C   25067.45465238 -.00000099  00000+0  27799-4 0  9995
2 39074  51.9949 128.8179 0000686  92.1338 267.9608 12.62268818559678
GLOBALSTAR M096         
1 39075U 13005D   25067.23035865 -.00000093  00000+0  61138-4 0  9990
2 39075  52.0066 177.9365 0000820  89.4072 270.6888 12.62268921558548
GLOBALSTAR M078         
1 39076U 13005E   25067.52002406 -.00000072  00000+0  17546-3 0  9998
2 39076  51.9856 261.6988 0000710  14.6637 345.4250 12.62260010557411
GLOBALSTAR M095         
1 39077U 13005F   25066.99261226 -.00000071  00000+0  18568-3 0  9990
2 39077  51.9781 260.5552 0000962  55.0247 305.0710 12.62267601556997
GLOBALSTAR M087         
1 52888U 22064A   25067.26084122 -.00000098  00000+0  31798-4 0  9999
2 52888  51.9805  41.1391 0000429  59.6493 300.4416 12.62269145132294
